ORBCOMM FM24            
1 25478U 98053D   25267.84842574  .00002081  00000+0  72325-3 0  9997
2 25478  45.0073 156.4826 0003414   7.3033 352.7864 14.38328159411798
ORBCOMM FM25            
1 25479U 98053E   25267.82177756  .00002006  00000+0  69933-3 0  9997
2 25479  45.0064 154.8942 0005623  19.8516 340.2551 14.38296952412081
ORBCOMM FM26            
1 25480U 98053F   25266.99594731  .00001737  00000+0  62371-3 0  9991
2 25480  45.0061 155.9917 0007240  31.7695 328.3589 14.37319526411867
ORBCOMM FM27            
1 25481U 98053G   25267.80729328  .00002082  00000+0  72372-3 0  9991
2 25481  45.0048 155.1288 0001944  10.9691 349.1199 14.38330979412018
ORBCOMM FM28            
1 25482U 98053H   25266.92981312  .00001660  00000+0  58465-3 0  9995
2 25482  45.0048  96.6561 0005115  78.1465 281.9957 14.38487831412577
ORBCOMM FM30            
1 25980U 99065A   25267.66959015  .00001572  00000+0  56736-3 0  9990
2 25980  45.0330 338.7692 0006767 166.1465 193.9570 14.37489624348764
ORBCOMM FM31            
1 25981U 99065B   25267.50826894  .00001457  00000+0  52985-3 0  9996
2 25981  45.0244 333.0001 0005115 196.3722 163.6962 14.37417803348295
ORBCOMM FM32            
1 25982U 99065C   25267.55105480  .00001701  00000+0  62219-3 0  9996
2 25982  45.0173 350.0419 0007341 182.2538 177.8278 14.36474932348888
